CSS (TIANHE)            
1 48274U 21035A   24162.32352868  .00021565  00000+0  24674-3 0  9992
2 48274  41.4679 124.9521 0002762 204.6428 155.4280 15.61622462178023
